JILIN-1 GAOFEN 3A       
1 44312U 19032C   26068.74542089  .00016264  00000+0  55381-3 0  9993
2 44312  44.9746 183.2861 0002618 111.2900 248.8263 15.30271310372592
STARLINK-32000          
1 60289U 24132M   26068.39628507 -.00000725  00000+0 -12344-4 0  9992
2 60289  53.1611  53.9242 0001510  98.3792 261.7380 15.30186778 91513
